STARLINK-4718           
1 53773U 22111A   22280.91667824 -.01210692  00000+0 -13517-1 0  9999
2 53773  53.2174 134.3028 0001583 142.9951 211.6528 15.64881434  4157
STARLINK-4719           
1 53774U 22111B   22280.91667824 -.01204709  00000+0 -13435-1 0  9991
2 53774  53.2175 134.3008 0001356 138.1434 217.3459 15.64898063  4150
STARLINK-4722           
1 53775U 22111C   22280.91667824 -.00102123  00000+0 -73052-3 0  9991
2 53775  53.2142 134.1950 0001241 124.1182 281.9947 15.73249558  4155
STARLINK-4708           
1 53776U 22111D   22280.91667824 -.00000961  00000+0 -24335-5 0  9991
2 53776  53.2138 134.1987 0001436 121.6381 283.1864 15.73187501  4151
STARLINK-4664           
1 53777U 22111E   22281.25001157 -.00134112  00000+0 -96269-3 0  9990
2 53777  53.2150 132.5434 0001228 127.0563   9.0874 15.73290478  4217
STARLINK-4709           
1 53778U 22111F   22281.25001157 -.00109103  00000+0 -78198-3 0  9994
2 53778  53.2146 132.5463 0001209 127.9046   6.4761 15.73232298  4211
STARLINK-4706           
1 53779U 22111G   22281.25001157 -.00056562  00000+0 -40022-3 0  9990
2 53779  53.2143 132.5424 0001139 118.4002  18.2978 15.73263104  4216
STARLINK-4678           
1 53780U 22111H   22281.25001157 -.00058543  00000+0 -41527-3 0  9994
2 53780  53.2145 132.5475 0001463 141.7590 353.8053 15.73218351  4213
STARLINK-4462           
1 53781U 22111J   22281.25001157 -.00099925  00000+0 -71422-3 0  9991
2 53781  53.2149 132.5418 0001641 141.9358 356.5032 15.73257885  4219
STARLINK-4679           
1 53782U 22111K   22280.91667824  .00014742  00000+0  10922-3 0  9993
2 53782  53.2153 134.1942 0001420 144.9314 263.4862 15.73210725  1301
STARLINK-4536           
1 53783U 22111L   22281.25001157 -.00003555  00000+0 -20909-4 0  9992
2 53783  53.2173 132.5407 0001748 155.1488 344.4814 15.73205654  4216
STARLINK-4687           
1 53784U 22111M   22280.91667824 -.00010327  00000+0 -69227-4 0  9995
2 53784  53.2151 134.1923 0001525 140.3717 268.5643 15.73207184  1301
STARLINK-4638           
1 53785U 22111N   22281.25001157 -.00042336  00000+0 -18184-3 0  9995
2 53785  53.2026 130.8272 0006964 332.3559 269.5840 15.84077324  4230
STARLINK-4631           
1 53786U 22111P   22281.25001157 -.00078085  00000+0 -55668-3 0  9994
2 53786  53.2137 132.5373 0001326 139.8287 359.2874 15.73218127  4218
STARLINK-4743           
1 53787U 22111Q   22280.91667824 -.00013567  00000+0 -92181-4 0  9992
2 53787  53.2154 134.1838 0001747 142.6359 270.5005 15.73253257  1302
STARLINK-4744           
1 53788U 22111R   22280.91667824 -.00005073  00000+0 -18507-4 0  9996
2 53788  53.2026 132.4906 0006927 331.3495 175.6722 15.84405724  4170
STARLINK-4666           
1 53789U 22111S   22280.91667824 -.00028734  00000+0 -20084-3 0  9998
2 53789  53.2149 134.1810 0001105  72.5348 341.8576 15.73220274  4159
STARLINK-4734           
1 53790U 22111T   22280.91667824  .00086096  00000+0  61294-3 0  9991
2 53790  53.2174 134.1870 0001525 131.8316 280.6821 15.73148135  1307
STARLINK U              
1 53791U 22111U   22280.94976625  .00197167  00000+0  73899-3 0  9993
2 53791  53.2024 132.2729 0007154 331.8840  28.1799 15.86792936  4267
STARLINK-4739           
1 53792U 22111V   22281.25001157 -.00067405  00000+0 -47895-3 0  9998
2 53792  53.2146 132.5321 0001823 144.9099 357.7873 15.73234577  4217
STARLINK-4728           
1 53793U 22111W   22280.91667824 -.00027563  00000+0 -19232-3 0  9995
2 53793  53.2155 134.1798 0001192 100.4331 315.0693 15.73235633  4153
STARLINK-4730           
1 53794U 22111X   22280.91667824 -.00049335  00000+0 -34871-3 0  9993
2 53794  53.2146 134.1788 0001298 126.3724 288.5984 15.73230005  4158
STARLINK-4742           
1 53795U 22111Y   22281.25001157 -.00082645  00000+0 -58954-3 0  9992
2 53795  53.2146 132.5275 0001786 161.6855 343.3812 15.73225452  4218
STARLINK Z              
1 53796U 22111Z   22280.88528089  .00193730  00000+0  72478-3 0  9992
2 53796  53.2020 132.5799 0006566 329.3821  30.6820 15.86845448  4254
STARLINK-4723           
1 53797U 22111AA  22280.91667824  .00028850  00000+0  20939-3 0  9993
2 53797  53.2157 134.1763 0001003 103.6501 313.7095 15.73185966  4150
STARLINK-4712           
1 53798U 22111AB  22280.91667824 -.00023892  00000+0 -16619-3 0  9997
2 53798  53.2142 134.1747 0001087 109.9473 306.7892 15.73215346  4148
STARLINK-4710           
1 53799U 22111AC  22281.25001157 -.00136269  00000+0 -97964-3 0  9992
2 53799  53.2151 132.5234 0001167 106.5141  40.9336 15.73263522  4190
STARLINK-4720           
1 53800U 22111AD  22281.25001157 -.00076234  00000+0 -54187-3 0  9990
2 53800  53.2153 132.5246 0001122 106.2718  40.5066 15.73278198  4197
STARLINK-4715           
1 53801U 22111AE  22280.91667824 -.00070908  00000+0 -50464-3 0  9998
2 53801  53.2148 134.1700 0001035 103.9273 315.8410 15.73220438  4148
STARLINK-4726           
1 53802U 22111AF  22280.91667824 -.00014964  00000+0 -10247-3 0  9994
2 53802  53.2153 134.1717 0001144 104.1686 315.0012 15.73183600  4144
STARLINK-4727           
1 53803U 22111AG  22280.91667824  .00050273  00000+0  36090-3 0  9990
2 53803  53.2145 134.1660 0001153 104.3947 316.5746 15.73172333  1301
STARLINK-4729           
1 53804U 22111AH  22280.91667824  .00028092  00000+0  20397-3 0  9998
2 53804  53.2150 134.1683 0001264 113.1793 307.1571 15.73192413  4141
STARLINK-4763           
1 53805U 22111AJ  22280.91667824  .00044655  00000+0  32129-3 0  9998
2 53805  53.2146 134.1648 0001225 111.4050 310.1464 15.73171363  4148
STARLINK-4768           
1 53806U 22111AK  22280.91667824 -.00015333  00000+0 -10504-3 0  9995
2 53806  53.2161 134.1673 0001120 120.2873 301.8595 15.73198193  4141
BLUEWALKER-3            
1 53807U 22111AL  22281.10558641  .00003347  00000+0  17573-3 0  9997
2 53807  53.2033 144.0499 0013275  13.6142 346.5210 15.18413217  4128
FALCON 9 DEB            
1 53808U 22111AM  22280.83160755  .00608866  16605-3  14722-2 0  9993
2 53808  53.2000 132.2185 0008753 294.1092  65.9022 15.95754675  4257
FALCON 9 DEB            
1 53809U 22111AN  22280.85804479  .00284490  40759-4  93593-3 0  9999
2 53809  53.1991 132.3913 0006424 333.1866  26.8828 15.90021891  5301
FALCON 9 DEB            
1 53810U 22111AP  22280.84857304  .00268667  37670-4  86073-3 0  9996
2 53810  53.2002 132.3278 0008967 337.0467  23.0159 15.90520042  4256
FALCON 9 DEB            
1 53811U 22111AQ  22280.88213740  .00280569  00000+0  96814-3 0  9992
2 53811  53.1940 132.5432 0006809 299.9811  60.0539 15.88260225  4257
FALCON 9 DEB            
1 53812U 22111AR  22280.88580447  .00205967  00000+0  76312-3 0  9994
2 53812  53.1969 132.5720 0008474 316.1400  43.8952 15.86989476  4257
CHINASAT 1E (ZX 1E)     
1 53813U 22112A   22281.17896605 -.00000167  00000+0  00000+0 0  9998
2 53813   1.4630 280.1842 0002703 252.8229 349.5718  1.00269309   336
CZ-7A R/B               
1 53814U 22112B   22280.08577227 -.00000020  00000+0  00000+0 0  9992
2 53814  14.2951 196.2965 4813127 196.0332 340.9669  5.72295490   687
STRIX-1                 
1 53815U 22113A   22281.17090991  .00005672  00000+0  46038-3 0  9995
2 53815  97.6609 331.7503 0012406 223.4862 136.5425 14.99971383  3343
ELECTRON KICK STAGE R/B 
1 53817U 22113C   22281.23147166  .00006473  00000+0  51884-3 0  9996
2 53817  97.6585 331.8218 0012960 217.1992 142.8385 15.00398742  3352
STARLINK-4749           
1 53818U 22114A   22281.25001157 -.00027475  00000+0 -19186-3 0  9995
2 53818  53.2150 163.7570 0000881 122.9422 311.1485 15.73215706  3600
STARLINK-4738           
1 53819U 22114B   22280.91667824  .00007056  00000+0  54633-4 0  9995
2 53819  53.2151 165.3990 0001358  83.4368 264.7432 15.73205809  1309
STARLINK-4758           
1 53820U 22114C   22281.25001157 -.00020576  00000+0 -14243-3 0  9992
2 53820  53.2149 163.7557 0001229 112.6682 322.0570 15.73219255  3606
STARLINK-4752           
1 53821U 22114D   22281.25001157 -.00019709  00000+0 -13628-3 0  9995
2 53821  53.2151 163.7515 0001009 104.2686 332.2539 15.73210403  3605
STARLINK-4713           
1 53822U 22114E   22280.56206978  .17043645  12483-4  88184-3 0  9991
2 53822  53.1893 163.7779 0035107  70.8516 296.7032 16.37848764  3538
STARLINK-4748           
1 53823U 22114F   22280.91667824 -.01158434  00000+0 -66514-2 0  9999
2 53823  53.2170 163.9321 0001535  27.3953 316.6714 15.80610556  3568
STARLINK-4757           
1 53824U 22114G   22281.25001157 -.00020909  00000+0 -14484-3 0  9993
2 53824  53.2166 163.7547 0000856  75.7068   2.6072 15.73215634  3605
STARLINK-4751           
1 53825U 22114H   22280.91667824 -.00001912  00000+0 -91986-5 0  9992
2 53825  53.2156 165.3997 0001339  89.7711 259.0140 15.73216980  3541
STARLINK-4756           
1 53826U 22114J   22280.91667824 -.00035013  00000+0 -24556-3 0  9999
2 53826  53.2156 165.3940 0001462 126.8627 224.8420 15.73249404  3544
STARLINK-4764           
1 53827U 22114K   22280.91667824 -.00037227  00000+0 -26183-3 0  9997
2 53827  53.2153 165.3959 0001279  57.3694 292.6042 15.73214722  3548
STARLINK-4760           
1 53828U 22114L   22280.91667824 -.00035605  00000+0 -24992-3 0  9992
2 53828  53.2154 165.3921 0001089 105.6120 246.7379 15.73239991  3547
STARLINK-4759           
1 53829U 22114M   22280.91667824 -.00006499  00000+0 -41898-4 0  9997
2 53829  53.2165 165.3997 0001282  62.2901 288.2583 15.73212887  3546
STARLINK-4761           
1 53830U 22114N   22281.25001157 -.00064819  00000+0 -46091-3 0  9997
2 53830  53.2154 163.7408 0001049 100.6688 341.7795 15.73204363  3602
STARLINK-4649           
1 53831U 22114P   22281.25001157  .00020484  00000+0  15026-3 0  9990
2 53831  53.2152 163.7456 0001200 105.1322 335.0162 15.73160106  3608
STARLINK-4747           
1 53832U 22114Q   22281.25001157 -.00055398  00000+0 -39229-3 0  9996
2 53832  53.2151 163.7377 0000867  96.4388 347.2348 15.73237200  3603
